OBJECT_NAME,OBJECT_ID,EPOCH,MEAN_MOTION,ECCENTRICITY,INCLINATION,RA_OF_ASC_NODE,ARG_OF_PERICENTER,MEAN_ANOMALY,EPHEMERIS_TYPE,CLASSIFICATION_TYPE,NORAD_CAT_ID,ELEMENT_SET_NO,REV_AT_EPOCH,BSTAR,MEAN_MOTION_DOT,MEAN_MOTION_DDOT
STARLINK-1666,2020-062AJ,2024-03-31T20:38:19.240224,15.06399336,.0001422,53.0555,294.1859,96.8821,263.2330,0,U,46357,999,19808,.21915E-3,.2984E-4,0
STARLINK-1690,2020-062AK,2024-03-31T21:44:39.390144,15.06399267,.0000813,53.0552,313.9815,88.3968,271.7114,0,U,46358,999,19781,-.32398E-3,-.5103E-4,0
STARLINK-1707,2020-062AL,2024-03-31T18:05:02.778432,15.06406311,.0001552,53.0540,269.6648,83.9576,276.1590,0,U,46359,999,19841,.11365E-3,.1412E-4,0
STARLINK-1713,2020-062AM,2024-03-31T12:14:46.182336,15.06397900,.0001175,53.0529,270.7551,83.6187,276.4936,0,U,46360,999,19820,.77194E-3,.11235E-3,0
STARLINK-1722,2020-062AN,2024-03-31T11:30:54.990432,15.06396225,.0001208,53.0531,270.8830,91.8000,268.3127,0,U,46361,999,19819,.26259E-3,.3632E-4,0
STARLINK-1726,2020-062AP,2024-03-31T12:35:57.313824,15.06394301,.0001348,53.0509,270.6872,86.7650,273.3493,0,U,46362,999,19820,-.15467E-3,-.2584E-4,0
STARLINK-1739,2020-062AQ,2024-03-31T12:23:59.310816,15.06404060,.0001795,53.0531,270.7147,100.1562,259.9629,0,U,46363,999,19820,.12309E-3,.1552E-4,0
STARLINK-1763,2020-062AR,2024-03-31T14:03:37.910016,15.06410647,.0001678,53.0534,250.9263,89.9340,270.1842,0,U,46364,999,19848,.11159E-3,.1381E-4,0
STARLINK-1651,2020-062AT,2024-03-31T11:37:35.458752,15.06408730,.0001253,53.0530,270.8715,88.4841,271.6291,0,U,46366,999,19819,.64342E-3,.9317E-4,0
STARLINK-1658,2020-062AV,2024-03-31T13:11:05.477280,15.06410020,.0001287,53.0523,295.5718,84.9374,275.1762,0,U,46368,999,19786,-.79538E-4,-.1466E-4,0
STARLINK-1670,2020-062AX,2024-03-31T20:17:05.554752,15.06390834,.0001054,53.0554,294.2528,86.3607,273.7502,0,U,46370,999,19808,.9273E-3,.13554E-3,0
STARLINK-1688,2020-062AY,2024-03-31T12:33:51.479136,15.06397954,.0001474,53.0545,295.1879,81.8356,278.2800,0,U,46371,999,19786,.18501E-3,.2475E-4,0
STARLINK-1689,2020-062AZ,2024-03-31T21:55:17.354784,15.06403229,.0001411,53.0549,313.9475,79.0137,281.1011,0,U,46372,999,19781,.32999E-3,.4638E-4,0
STARLINK-1711,2020-062BB,2024-03-31T14:17:28.466304,15.06404105,.0001845,53.0547,245.3781,101.3078,258.8119,0,U,46374,999,19856,.20582E-3,.2786E-4,0
STARLINK-1724,2020-062BC,2024-03-31T19:24:39.697920,15.06406927,.0001365,53.0554,269.4174,92.3922,267.7223,0,U,46375,999,19842,.6574E-4,.698E-5,0
STARLINK-1742,2020-062BD,2024-03-31T18:10:25.062528,15.06363003,.0001748,53.0560,269.6502,75.7970,284.3213,0,U,46376,999,19841,-.2574E-3,-.411E-4,0
STARLINK-1758,2020-062BH,2024-03-31T12:35:18.615264,15.06401123,.0001259,53.0558,295.6931,78.1569,281.9562,0,U,46380,999,19785,.23356E-3,.3199E-4,0
STARLINK-1769,2020-062BK,2024-03-31T18:31:35.772384,15.06392788,.0001481,53.0556,269.5820,94.0188,266.0970,0,U,46382,999,19839,-.15263E-3,-.2554E-4,0
STARLINK-1770,2020-062BL,2024-03-31T21:23:26.351808,15.06405289,.0001314,53.0552,314.0471,79.9946,280.1191,0,U,46383,999,19780,.36272E-3,.5126E-4,0
STARLINK-1771,2020-062BM,2024-03-31T21:28:44.082624,15.06404578,.0001607,53.0551,314.0306,87.6008,272.5165,0,U,46384,999,19780,-.7818E-4,-.1446E-4,0
GAOFEN-11 02,2020-064A,2024-03-31T20:39:14.378112,15.23308183,.0002229,97.4313,210.3495,349.6913,10.4278,0,U,46396,999,19861,.48399E-3,.11423E-3,0
JILIN-1 GAOFEN 3B,2020-065A,2024-03-31T20:00:37.568160,15.23364996,.0012822,97.3523,138.2001,127.0229,233.2183,0,U,46454,999,19564,.58709E-3,.1393E-3,0
JILIN-1 GAOFEN 3C,2020-065B,2024-03-31T20:20:18.177504,15.23518216,.0011846,97.3479,137.5576,138.9580,221.2550,0,U,46455,999,19565,.58647E-3,.13974E-3,0
JILIN-1 GAOFEN 3D,2020-065C,2024-03-31T20:36:24.955488,15.23999968,.0011074,97.3564,139.2816,139.9997,220.2058,0,U,46456,999,19566,.64101E-3,.155E-3,0
JILIN-1 GAOFEN 3E,2020-065D,2024-03-31T20:18:54.371232,15.23195097,.0011404,97.3532,138.3108,144.0835,216.1171,0,U,46457,999,19564,.57891E-3,.13659E-3,0
JILIN-1 GAOFEN 3F,2020-065E,2024-03-31T19:42:35.467776,15.23212747,.0011879,97.3466,137.1742,134.9230,225.2973,0,U,46458,999,19564,.59261E-3,.13994E-3,0
JILIN-1 GAOFEN 3G,2020-065F,2024-03-31T20:51:39.934944,15.23308044,.0012639,97.3582,139.3634,139.9899,220.2272,0,U,46459,999,19565,.61342E-3,.14533E-3,0
JILIN-1 GAOFEN 3H,2020-065G,2024-03-31T20:04:36.843456,15.23050519,.0012029,97.3478,137.3765,136.7530,223.4653,0,U,46460,999,19564,.56812E-3,.13348E-3,0
JILIN-1 GAOFEN 3I,2020-065H,2024-03-31T20:44:14.176608,15.23278654,.0012469,97.3567,139.0750,130.3527,229.8801,0,U,46461,999,19565,.60473E-3,.14313E-3,0
JILIN-1 GAOFEN 3J,2020-065J,2024-03-31T20:18:42.183648,15.23338166,.0011724,97.3521,138.2901,134.2497,225.9704,0,U,46462,999,19565,.59144E-3,.14018E-3,0
HAIYANG-2C,2020-066A,2024-03-31T20:24:06.118848,13.83377521,.0013378,65.9959,65.3711,255.1826,104.7760,0,U,46469,999,17810,.89093E-4,.17E-6,0
HJ-2A,2020-067A,2024-03-31T20:23:46.762656,14.76552319,.0001706,97.9420,175.1164,75.5772,284.5627,0,U,46478,999,18912,.21853E-3,.1474E-4,0
HJ-2B,2020-067B,2024-03-31T19:37:22.448352,14.76525246,.0002212,97.9459,175.6090,99.0479,261.0981,0,U,46479,999,18912,.21465E-3,.1446E-4,0
GONETS-M 17,2020-068A,2024-03-31T19:36:19.534464,12.42905776,.0022768,82.4948,129.7617,359.6467,0.4593,0,U,46486,999,15905,.61943E-4,.18E-6,0
GONETS-M 18,2020-068B,2024-03-31T20:45:04.152096,12.42886628,.0019782,82.4902,129.1603,356.4000,3.6934,0,U,46487,999,15905,-.26193E-4,.6E-7,0
GONETS-M 19,2020-068C,2024-03-31T14:21:27.345888,12.42880451,.0013864,82.4927,129.6097,14.3854,345.7618,0,U,46488,999,15892,.11771E-3,.26E-6,0
MEZNSAT,2020-068D,2024-03-31T19:28:17.146848,15.22464342,.001205,97.8041,54.4686,189.0076,171.0945,0,U,46489,999,19298,.90861E-3,.21039E-3,0
YARILO 1,2020-068E,2024-03-31T20:35:48.359040,15.24432591,.0011616,97.8051,55.3962,187.8782,172.2273,0,U,46490,999,19304,.11568E-2,.28441E-3,0
YARILO 2,2020-068F,2024-03-31T20:50:51.720288,15.24024569,.0011897,97.8053,55.1352,189.5976,170.5034,0,U,46491,999,19302,.10286E-2,.24966E-3,0
LACUNASAT-3,2020-068G,2024-03-31T14:13:51.733632,15.25885322,.0011028,97.8030,55.5283,185.2178,174.8946,0,U,46492,999,19301,.11293E-2,.28994E-3,0
DEKART,2020-068H,2024-03-31T14:30:12.256128,15.13309155,.0013929,97.8093,50.1678,213.7956,146.2388,0,U,46493,999,19265,.5392E-3,.9559E-4,0
NORBI,2020-068J,2024-03-31T20:16:40.010592,15.14873252,.0013253,97.8088,51.0803,211.1807,148.8639,0,U,46494,999,19273,.59254E-3,.10985E-3,0
SALSAT,2020-068K,2024-03-31T11:17:24.910944,15.11710233,.0013052,97.8099,48.9326,211.7157,148.3287,0,U,46495,999,19256,.45407E-3,.7683E-4,0
ICEYE-X7,2020-068L,2024-03-31T19:41:08.288448,15.07091336,.0010214,97.6698,30.5898,235.6863,124.3398,0,U,46496,999,19217,.71081E-3,.10627E-3,0
ICEYE-X6,2020-068M,2024-03-31T19:34:24.401280,15.00727465,.0004067,97.9235,46.2976,299.9346,60.1473,0,U,46497,999,19206,.64755E-3,.8151E-4,0
KEPLER-5 (AMIDALA),2020-068N,2024-03-31T10:42:35.502336,15.29202363,.0007618,97.7949,53.8364,183.8623,176.2558,0,U,46498,999,19293,.21086E-2,.60136E-3,0
KEPLER-4 (ANTILLES),2020-068P,2024-03-31T19:59:04.416864,15.25077839,.0007704,97.7969,53.4154,195.2038,164.8968,0,U,46499,999,19289,.10484E-2,.26235E-3,0
LEMUR-2-SLICERS,2020-068Q,2024-03-31T20:57:50.172768,15.35947577,.0005666,97.7852,56.7450,172.7765,187.3560,0,U,46500,999,19313,.13769E-2,.48368E-3,0
LEMUR-2-DAYWZAGOODDAY,2020-068R,2024-03-31T19:33:23.862528,15.32780702,.0006118,97.7908,56.5696,179.3113,180.8137,0,U,46501,999,19309,.12908E-2,.40978E-3,0
LEMUR-2-SUSURRUS,2020-068S,2024-03-31T20:58:31.820160,15.35947015,.0005869,97.7886,56.8120,175.0666,185.0636,0,U,46502,999,19313,.13513E-2,.47463E-3,0
LEMUR-2-NICHOL,2020-068T,2024-03-31T20:07:39.656352,15.30341960,.0005928,97.7916,55.3937,192.1205,167.9893,0,U,46503,999,19303,.11763E-2,.34578E-3,0
NETSAT-4,2020-068U,2024-03-31T19:41:43.455840,15.13148548,.0008,97.7990,47.0268,266.3928,93.6388,0,U,46504,999,19246,.68524E-3,.12098E-3,0
NETSAT-3,2020-068V,2024-03-31T20:17:00.225600,15.12695271,.0007173,97.7963,46.6494,276.7499,83.2914,0,U,46505,999,19246,.565E-3,.9833E-4,0
NETSAT-1,2020-068W,2024-03-31T19:41:36.024576,15.11445739,.0006272,97.7985,46.2535,291.2400,68.8160,0,U,46506,999,19243,.55166E-3,.9269E-4,0
NETSAT-2,2020-068X,2024-03-31T19:59:58.879104,15.13057856,.0005394,97.7973,46.6977,299.8430,60.2264,0,U,46507,999,19241,.65968E-3,.11609E-3,0
STARLINK-1644,2020-070A,2024-03-31T18:17:38.776704,15.06400239,.0001356,53.0529,114.6263,97.1527,262.9617,0,U,46532,999,19282,-.94752E-4,-.1692E-4,0
STARLINK-1648,2020-070B,2024-03-31T18:33:34.162848,15.06414789,.0001367,53.0531,114.5770,80.3092,279.8051,0,U,46533,999,19282,.36757E-4,.266E-5,0
STARLINK-1659,2020-070C,2024-03-31T18:07:02.335296,15.06399195,.0001538,53.0522,114.6593,100.8219,259.2943,0,U,46534,999,19282,.25935E-3,.3583E-4,0
STARLINK-1663,2020-070D,2024-03-31T11:28:56.488512,15.06414994,.0001344,53.0537,115.8989,92.1783,267.9360,0,U,46535,999,19275,.10423E-3,.1272E-4,0
STARLINK-1672,2020-070F,2024-03-31T18:28:15.315744,15.06406125,.0001201,53.0522,114.5930,90.7913,269.3213,0,U,46537,999,19251,.30269E-4,.17E-5,0
STARLINK-1678,2020-070G,2024-03-31T11:34:15.412512,15.06413424,.000132,53.0533,115.8833,85.4717,274.6422,0,U,46538,999,19275,.95514E-4,.1142E-4,0
STARLINK-1687,2020-070K,2024-03-31T17:27:13.871232,15.06415458,.0001457,53.0525,94.7833,77.4459,282.6693,0,U,46541,999,19307,.21242E-3,.2885E-4,0
STARLINK-1692,2020-070L,2024-03-31T19:05:25.131264,15.06400912,.0001207,53.0536,114.4775,93.2211,266.8916,0,U,46542,999,19282,-.9783E-4,-.1738E-4,0
STARLINK-1693,2020-070M,2024-03-31T18:44:11.459616,15.06401458,.0001433,53.0542,114.5438,86.9986,273.1167,0,U,46543,999,19282,-.12708E-4,-.471E-5,0
STARLINK-1694,2020-070N,2024-03-31T17:02:40.021152,15.06401113,.000131,53.0524,99.8552,90.7287,269.3852,0,U,46544,999,19301,-.73275E-4,-.1373E-4,0
STARLINK-1696,2020-070P,2024-03-31T18:01:43.114944,15.06401470,.0001405,53.0524,114.6756,86.9198,273.1951,0,U,46545,999,19280,-.42945E-4,-.921E-5,0
